NORAD_CAT_ID,OBJECT_NAME,OBJECT_TYPE,EPOCH,MEAN_MOTION,ECCENTRICITY,INCLINATION,RA_OF_ASC_NODE,ARG_OF_PERICENTER,MEAN_ANOMALY,BSTAR,MEAN_MOTION_DOT,MEAN_MOTION_DDOT,TLE_LINE0,TLE_LINE1,TLE_LINE2,SEMIMAJOR_AXIS,PERIOD,APOGEE,PERIGEE,DECAYED
52543.0,STARLINK-3926,PAYLOAD,2022-07-30 14:00:01,15.08850228,0.0001837,53.2182,286.3388,45.6261,329.9883,-0.0012994,-0.00020915,0.0,0 STARLINK-3926,1 52543U 22051L   22211.58334491 -.00020915  00000-0 -12994-2 0  9990,2 52543  53.2182 286.3388 0001837  45.6261 329.9883 15.08850228 12524,6917.849,95.437,540.985,538.443,0.0
52543.0,STARLINK-3926,PAYLOAD,2022-07-30 22:00:00,15.08834922,0.0001666999999999,53.2177,284.8411,46.2809,340.9359,-0.0014074,-0.00022614,0.0,0 STARLINK-3926,1 52543U 22051L   22211.91667824 -.00022614  00000-0 -14074-2 0  9995,2 52543  53.2177 284.8411 0001667  46.2809 340.9359 15.08834922  1302,6917.896,95.438,540.914,538.6080000000002,0.0
52543.0,STARLINK-3926,PAYLOAD,2022-07-31 14:00:01,15.08814614,0.0001803,53.2174,281.85,44.5658,5.818,0.0017454,0.0002758,0.0,0 STARLINK-3926,1 52543U 22051L   22212.58334491  .00027580  00000-0  17454-2 0  9990,2 52543  53.2174 281.8500 0001803  44.5658   5.8180 15.08814614  1305,6917.958000000001,95.439,541.07,538.576,0.0
52543.0,STARLINK-3926,PAYLOAD,2022-07-31 22:00:00,15.08838005,0.0001685,53.2171,280.3521,47.0424,14.9197,-0.0009251,-0.0001498,0.0,0 STARLINK-3926,1 52543U 22051L   22212.91667824 -.00014980  00000-0 -92510-3 0  9995,2 52543  53.2171 280.3521 0001685  47.0424  14.9197 15.08838005  1305,6917.886,95.438,540.9169999999998,538.586,0.0
52543.0,STARLINK-3926,PAYLOAD,2022-08-01 06:00:00,15.08846395,0.0001685,53.217,278.8557,50.3695,23.1728,-0.0006368,-0.0001041,0.0,0 STARLINK-3926,1 52543U 22051L   22213.25001157 -.00010410  00000-0 -63680-3 0  9994,2 52543  53.2170 278.8557 0001685  50.3695  23.1728 15.08846395 12778,6917.861,95.437,540.8919999999998,538.56,0.0
52543.0,STARLINK-3926,PAYLOAD,2022-08-01 14:00:01,15.08818376,0.0001853,53.2169,277.3609,44.0906,41.0547,0.0022628,0.00035887,0.0,0 STARLINK-3926,1 52543U 22051L   22213.58334491  .00035887  00000-0  22628-2 0  9999,2 52543  53.2169 277.3609 0001853  44.0906  41.0547 15.08818376  1303,6917.946,95.439,541.0930000000002,538.53,0.0
52543.0,STARLINK-3926,PAYLOAD,2022-08-01 22:00:00,15.08842674,0.0001732,53.2169,275.8629,46.6787,50.055,-0.00039722,-6.605e-05,0.0,0 STARLINK-3926,1 52543U 22051L   22213.91667824 -.00006605  00000-0 -39722-3 0  9997,2 52543  53.2169 275.8629 0001732  46.6787  50.0550 15.08842674  1301,6917.871999999999,95.437,540.935,538.539,0.0
52543.0,STARLINK-3926,PAYLOAD,2022-08-02 06:00:02,15.08856286,0.0001774,53.2169,274.3664,49.6091,58.7754,-0.00096885,-0.00015681,0.0,0 STARLINK-3926,1 52543U 22051L   22214.25002315 -.00015681  00000-0 -96885-3 0  9990,2 52543  53.2169 274.3664 0001774  49.6091  58.7754 15.08856286 12926,6917.831,95.437,540.923,538.4680000000002,0.0
52543.0,STARLINK-3926,PAYLOAD,2022-08-02 14:00:01,15.08822937,0.0001936,53.2169,272.8716,43.3624,76.572,0.0026831999999999,0.00042654,0.0,0 STARLINK-3926,1 52543U 22051L   22214.58334491  .00042654  00000-0  26832-2 0  9991,2 52543  53.2169 272.8716 0001936  43.3624  76.5720 15.08822937 12972,6917.933000000001,95.439,541.137,538.4580000000002,0.0
52543.0,STARLINK-3926,PAYLOAD,2022-08-03 06:00:00,15.08866987,0.0001854,53.2173,269.8771,48.6637,94.4675,-0.0012208,-0.00019679,0.0,0 STARLINK-3926,1 52543U 22051L   22215.25001157 -.00019679  00000-0 -12208-2 0  9991,2 52543  53.2173 269.8771 0001854  48.6637  94.4675 15.08866987 13078,6917.7980000000025,95.436,540.945,538.38,0.0
52543.0,STARLINK-3926,PAYLOAD,2022-08-03 14:00:01,15.08837574,0.0001981,53.2173,268.3821,41.7473,113.0084,0.0001999,2.895e-05,0.0,0 STARLINK-3926,1 52543U 22051L   22215.58334491  .00002895  00000-0  19990-3 0  9993,2 52543  53.2173 268.3821 0001981  41.7473 113.0084 15.08837574  1306,6917.888000000001,95.438,541.123,538.382,0.0
52543.0,STARLINK-3926,PAYLOAD,2022-08-03 22:00:01,15.08825633,0.0001786,53.2175,266.8839,43.9394,122.4801,0.00059809,9.24e-05,0.0,0 STARLINK-3926,1 52543U 22051L   22215.91668981  .00009240  00000-0  59809-3 0  9998,2 52543  53.2175 266.8839 0001786  43.9394 122.4801 15.08825633  1303,6917.924,95.438,541.025,538.554,0.0
52543.0,STARLINK-3926,PAYLOAD,2022-08-04 14:00:01,15.08814477,0.0002012,53.2177,263.8928,40.7456,148.7912,0.0030112,0.00047928,0.0,0 STARLINK-3926,1 52543U 22051L   22216.58334491  .00047928  00000-0  30112-2 0  9998,2 52543  53.2177 263.8928 0002012  40.7456 148.7912 15.08814477 13286,6917.958000000001,95.439,541.215,538.432,0.0
52543.0,STARLINK-3926,PAYLOAD,2022-08-04 22:00:00,15.08830766,0.0001827,53.218,262.3947,44.6159,156.513,0.0010675,0.00016738,0.0,0 STARLINK-3926,1 52543U 22051L   22216.91667824  .00016738  00000-0  10675-2 0  9991,2 52543  53.2180 262.3947 0001827  44.6159 156.5130 15.08830766  1309,6917.909000000002,95.438,541.038,538.51,0.0
52543.0,STARLINK-3926,PAYLOAD,2022-08-05 06:00:02,15.08859572,0.0001879,53.2182,260.8988,46.3449,166.4334,-0.0015044,-0.00024164,0.0,0 STARLINK-3926,1 52543U 22051L   22217.25002315 -.00024164  00000-0 -15044-2 0  9996,2 52543  53.2182 260.8988 0001879  46.3449 166.4334 15.08859572 13380,6917.821,95.436,540.985,538.386,0.0
52543.0,STARLINK-3926,PAYLOAD,2022-08-05 14:00:01,15.08832206,0.0002006999999999,53.2179,259.4036,40.759,183.6302,0.0014844,0.0002340999999999,0.0,0 STARLINK-3926,1 52543U 22051L   22217.58335648  .00023410  00000-0  14844-2 0  9998,2 52543  53.2179 259.4036 0002007  40.7590 183.6302 15.08832206  1303,6917.904,95.438,541.158,538.381,0.0
52543.0,STARLINK-3926,PAYLOAD,2022-08-05 22:00:00,15.08818111,0.0001766,53.2181,257.9055,43.3797,192.5549,0.00060155,9.293e-05,0.0,0 STARLINK-3926,1 52543U 22051L   22217.91667824  .00009293  00000-0  60155-3 0  9999,2 52543  53.2181 257.9055 0001766  43.3797 192.5549 15.08818111  1300,6917.946999999999,95.439,541.034,538.591,0.0
52543.0,STARLINK-3926,PAYLOAD,2022-08-06 06:00:00,15.08840066,0.0001804,53.2181,256.4101,44.0519,203.4501,-0.0016897,-0.00027079,0.0,0 STARLINK-3926,1 52543U 22051L   22218.25001157 -.00027079  00000-0 -16897-2 0  9995,2 52543  53.2181 256.4101 0001804  44.0519 203.4501 15.08840066 13531,6917.88,95.438,540.993,538.497,0.0
52543.0,STARLINK-3926,PAYLOAD,2022-08-06 14:00:01,15.08809964,0.0001947,53.2177,254.9148,39.3906,219.699,0.0022625,0.00035874,0.0,0 STARLINK-3926,1 52543U 22051L   22218.58334491  .00035874  00000-0  22625-2 0  9997,2 52543  53.2177 254.9148 0001947  39.3906 219.6990 15.08809964  1300,6917.972,95.439,541.184,538.49,0.0
52543.0,STARLINK-3926,PAYLOAD,2022-08-06 22:00:00,15.08809881,0.0001757,53.2177,253.4168,44.2843,226.3874,0.0020157,0.00031911,0.0,0 STARLINK-3926,1 52543U 22051L   22218.91667824  .00031911  00000-0  20157-2 0  9999,2 52543  53.2177 253.4168 0001757  44.2843 226.3874 15.08809881  1304,6917.972,95.439,541.053,538.622,0.0
52543.0,STARLINK-3926,PAYLOAD,2022-08-07 14:00:01,15.08818452,0.0001955,53.2171,250.4261,40.4428,253.387,0.0016311,0.00025751,0.0,0 STARLINK-3926,1 52543U 22051L   22219.58334491  .00025751  00000-0  16311-2 0  9996,2 52543  53.2171 250.4261 0001955  40.4428 253.3870 15.08818452 13736,6917.946,95.439,541.164,538.4590000000002,0.0
52543.0,STARLINK-3926,PAYLOAD,2022-08-07 22:00:00,15.08812133,0.0001789,53.217,248.9281,45.9956,259.4263,0.0024748,0.00039288,0.0,0 STARLINK-3926,1 52543U 22051L   22219.91667824  .00039288  00000-0  24748-2 0  9995,2 52543  53.2170 248.9281 0001789  45.9956 259.4263 15.08812133  1303,6917.965999999999,95.439,541.068,538.5930000000002,0.0
52543.0,STARLINK-3926,PAYLOAD,2022-08-08 14:00:01,15.08835002,0.0002000999999999,53.2163,245.9372,41.2736,287.3899,0.0013538,0.00021321,0.0,0 STARLINK-3926,1 52543U 22051L   22220.58335648  .00021321  00000-0  13538-2 0  9990,2 52543  53.2163 245.9372 0002001  41.2736 287.3899 15.08835002 13887,6917.896,95.438,541.145,538.376,0.0
52543.0,STARLINK-3926,PAYLOAD,2022-08-08 22:00:00,15.08824127,0.0001847,53.2163,244.4392,47.0374,293.1731,0.003,0.0004775999999999,0.0,0 STARLINK-3926,1 52543U 22051L   22220.91667824  .00047760  00000-0  30000-2 0  9999,2 52543  53.2163 244.4392 0001847  47.0374 293.1731 15.08824127  1302,6917.929,95.439,541.072,538.516,0.0
52543.0,STARLINK-3926,PAYLOAD,2022-08-09 14:00:01,15.08839477,0.0002026999999999,53.2159,241.4481,39.9807,323.4338,-0.00082324,-0.00013366,0.0,0 STARLINK-3926,1 52543U 22051L   22221.58334491 -.00013366  00000-0 -82324-3 0  9998,2 52543  53.2159 241.4481 0002027  39.9807 323.4338 15.08839477  1309,6917.882,95.438,541.149,538.345,0.0
52543.0,STARLINK-3926,PAYLOAD,2022-08-09 22:00:00,15.08804739,0.0001849,53.2159,239.95,44.8227,330.19,0.0030473,0.00048497,0.0,0 STARLINK-3926,1 52543U 22051L   22221.91667824  .00048497  00000-0  30473-2 0  9992,2 52543  53.2159 239.9500 0001849  44.8227 330.1900 15.08804739  1308,6917.988,95.44,541.132,538.5740000000002,0.0
52543.0,STARLINK-3926,PAYLOAD,2022-08-10 14:00:01,15.08835707,0.0002117,53.2158,236.9588,40.0789,358.094,0.00035875,5.425e-05,0.0,0 STARLINK-3926,1 52543U 22051L   22222.58334491  .00005425  00000-0  35875-3 0  9993,2 52543  53.2158 236.9588 0002117  40.0789 358.0940 15.08835707  1302,6917.894,95.438,541.2230000000002,538.294,0.0
52543.0,STARLINK-3926,PAYLOAD,2022-08-10 17:07:18,15.08852792,0.0002065,53.216,236.3741,42.3424,342.7255,-0.0021171999999999,-0.00033838,0.0,0 STARLINK-3926,1 52543U 22051L   22222.71341435 -.00033838  00000-0 -21172-2 0  9999,2 52543  53.2160 236.3741 0002065  42.3424 342.7255 15.08852792 14208,6917.840999999999,95.437,541.135,538.278,0.0
52543.0,STARLINK-3926,PAYLOAD,2022-08-10 22:00:00,15.08815065,0.0001959,53.216,235.4607,45.5707,4.2034,0.0029629,0.0004714999999999,0.0,0 STARLINK-3926,1 52543U 22051L   22222.91667824  .00047150  00000-0  29629-2 0  9999,2 52543  53.2160 235.4607 0001959  45.5707   4.2034 15.08815065  1303,6917.956999999999,95.439,541.177,538.466,0.0
